ONEWEB-0128             
1 47274U 20100S   25269.93650079 -.00000480  00000+0 -13685-2 0  9998
2 47274  87.8921  43.0011 0001479 105.5979 254.5313 13.12441543230216
ONEWEB-0129             
1 47275U 20100T   25269.91542758  .00000167  00000+0  42794-3 0  9995
2 47275  87.8930  42.9515 0002526 119.6580 240.4800 13.12440643230149
ONEWEB-0130             
1 47276U 20100U   25269.94298733 -.00000438  00000+0 -12535-2 0  9992
2 47276  87.8927  42.9426 0001620 102.2413 257.8897 13.12441055230117
ONEWEB-0131             
1 47277U 20100V   25269.86351471 -.00000436  00000+0 -12467-2 0  9995
2 47277  87.8931  42.9885 0001599  99.9994 260.1315 13.12444327230143
ONEWEB-0132             
1 47278U 20100W   25269.74025977  .00000446  00000+0  12048-2 0  9996
2 47278  87.8930  43.0147 0001577  98.0157 262.1151 13.12446574230026
ONEWEB-0133             
1 47279U 20100X   25269.90879685  .00000394  00000+0  10590-2 0  9990
2 47279  87.8916  42.9492 0001454  98.4599 261.6694 13.12440714230206
ONEWEB-0134             
1 47280U 20100Y   25269.87810824 -.00000111  00000+0 -34395-3 0  9997
2 47280  87.8932  42.9439 0001547 107.5610 252.5688 13.12445603230176
ONEWEB-0135             
1 47281U 20100Z   25269.92516000 -.00000193  00000+0 -57204-3 0  9997
2 47281  87.8928  42.9749 0001352 112.6235 247.5037 13.12442071230202
